STARLINK-36978          
1 68960U 26099K   26132.83335648 -.00020259  00000+0 -99246-4 0  9992
2 68960  53.1596 331.6727 0000655  64.8762 300.3435 15.80894492  3032
