{
  "norad_id": 68960,
  "name": "STARLINK-36978",
  "history": [
    {
      "epoch": "2026-05-12T20:00:01.999008Z",
      "apogee_km": 328.3491050636994,
      "perigee_km": 327.4706129251708,
      "latitude_deg": 4.114376793272185,
      "longitude_deg": 164.13402461209552,
      "height_km": 328.16667227525846,
      "semi_major_axis_km": 6706.046858994435,
      "eccentricity": 6.55e-05,
      "inclination_deg": 53.1596,
      "raan_deg": 331.6727,
      "arg_perigee_deg": 64.8762,
      "mean_anomaly_deg": 300.3435,
      "mean_motion_rev_day": 15.80894492
    }
  ]
}